[{"OBJECT_NAME":"LEMUR-2-PETERG","OBJECT_ID":"2017-042S","EPOCH":"2026-03-09T11:34:35.656032","MEAN_MOTION":15.29611459,"ECCENTRICITY":0.00037,"INCLINATION":97.398,"RA_OF_ASC_NODE":253.6596,"ARG_OF_PERICENTER":341.6938,"MEAN_ANOMALY":18.4169,"EPHEMERIS_TYPE":0,"CLASSIFICATION_TYPE":"U","NORAD_CAT_ID":42841,"ELEMENT_SET_NO":999,"REV_AT_EPOCH":47317,"BSTAR":0.00081076471,"MEAN_MOTION_DOT":0.0002324,"MEAN_MOTION_DDOT":0},{"OBJECT_NAME":"STARLINK-2654","OBJECT_ID":"2021-040AC","EPOCH":"2026-03-09T14:45:45.520416","MEAN_MOTION":15.30209025,"ECCENTRICITY":0.0001338,"INCLINATION":53.1603,"RA_OF_ASC_NODE":178.4674,"ARG_OF_PERICENTER":68.4218,"MEAN_ANOMALY":291.6926,"EPHEMERIS_TYPE":0,"CLASSIFICATION_TYPE":"U","NORAD_CAT_ID":48454,"ELEMENT_SET_NO":999,"REV_AT_EPOCH":26667,"BSTAR":0.00025046,"MEAN_MOTION_DOT":7.068e-5,"MEAN_MOTION_DDOT":0}]
